NORAD_CAT_ID,OBJECT_NAME,OBJECT_TYPE,EPOCH,MEAN_MOTION,ECCENTRICITY,INCLINATION,RA_OF_ASC_NODE,ARG_OF_PERICENTER,MEAN_ANOMALY,BSTAR,MEAN_MOTION_DOT,MEAN_MOTION_DDOT,TLE_LINE0,TLE_LINE1,TLE_LINE2,SEMIMAJOR_AXIS,PERIOD,APOGEE,PERIGEE,DECAYED
49179.0,STARLINK-3043,PAYLOAD,2023-12-15 13:46:56,14.98329503,0.0002567,69.9988,149.6397,273.702,86.3845,-3.1629e-05,-4.7e-06,0.0,0 STARLINK-3043,1 49179U 21082BB  23349.57426069 -.00000470  00000-0 -31629-4 0  9991,2 49179  69.9988 149.6397 0002567 273.7020  86.3845 14.98329503124860,6950.194,96.107,573.844,570.275,0.0
49179.0,STARLINK-3043,PAYLOAD,2023-12-15 20:11:28,14.98328867,0.0002297,69.9995,148.968,261.8871,98.2027,-1.8e-05,-3.08e-06,0.0,0 STARLINK-3043,1 49179U 21082BB  23349.84130060 -.00000308  00000-0 -18000-4 0  9992,2 49179  69.9995 148.9680 0002297 261.8871  98.2027 14.98328867124908,6950.196,96.107,573.658,570.465,0.0
49179.0,STARLINK-3043,PAYLOAD,2023-12-16 13:48:57,14.9832763,0.0002388,69.9991,147.1155,262.4137,97.6751,3.3634e-05,3.08e-06,0.0,0 STARLINK-3043,1 49179U 21082BB  23350.57566101  .00000308  00000-0  33634-4 0  9991,2 49179  69.9991 147.1155 0002388 262.4137  97.6751 14.98327630125012,6950.2,96.107,573.725,570.406,0.0
49179.0,STARLINK-3043,PAYLOAD,2023-12-16 20:13:29,14.98327599,0.0002415,69.9992,146.4423,265.111,94.9773,2.8084e-05,2.42e-06,0.0,0 STARLINK-3043,1 49179U 21082BB  23350.84270176  .00000242  00000-0  28084-4 0  9995,2 49179  69.9992 146.4423 0002415 265.1110  94.9773 14.98327599125057,6950.2,96.107,573.744,570.387,0.0
49179.0,STARLINK-3043,PAYLOAD,2023-12-17 13:50:57,14.98331985,0.0002517,69.9992,144.5907,267.9714,92.1156,6.964e-05,7.38e-06,0.0,0 STARLINK-3043,1 49179U 21082BB  23351.57705820  .00000738  00000-0  69640-4 0  9998,2 49179  69.9992 144.5907 0002517 267.9714  92.1156 14.98331985125167,6950.187,96.107,573.801,570.302,0.0
49179.0,STARLINK-3043,PAYLOAD,2023-12-17 20:15:29,14.98335741,0.0002467,69.9993,143.9179,266.978,93.1097,0.0001105,1.226e-05,0.0,0 STARLINK-3043,1 49179U 21082BB  23351.84409436  .00001226  00000-0  11050-3 0  9996,2 49179  69.9993 143.9179 0002467 266.9780  93.1097 14.98335741125202,6950.175,96.107,573.755,570.326,0.0
49179.0,STARLINK-3043,PAYLOAD,2023-12-18 13:52:58,14.98334037,0.0002349,69.9998,142.0673,261.7576,98.3316,8.4375e-05,9.14e-06,0.0,0 STARLINK-3043,1 49179U 21082BB  23352.57845438  .00000914  00000-0  84375-4 0  9997,2 49179  69.9998 142.0673 0002349 261.7576  98.3316 14.98334037125311,6950.18,96.107,573.678,570.413,0.0
49179.0,STARLINK-3043,PAYLOAD,2023-12-18 20:17:30,14.98336125,0.0002403,69.9998,141.3942,262.502,97.5866,9.2939e-05,1.016e-05,0.0,0 STARLINK-3043,1 49179U 21082BB  23352.84549211  .00001016  00000-0  92939-4 0  9996,2 49179  69.9998 141.3942 0002403 262.5020  97.5866 14.98336125125351,6950.174,96.107,573.709,570.369,0.0
49179.0,STARLINK-3043,PAYLOAD,2023-12-19 12:18:50,14.98375642,0.0001762,70.0005,139.712,237.7505,122.3484,-0.00072601,-8.754e-05,0.0,0 STARLINK-3043,1 49179U 21082BB  23353.51309010 -.00008754  00000-0 -72601-3 0  9993,2 49179  70.0005 139.7120 0001762 237.7505 122.3484 14.98375642125452,6950.052,96.104,573.141,570.692,0.0
49179.0,STARLINK-3043,PAYLOAD,2023-12-19 13:54:58,14.9837553,0.0001809,70.0004,139.5437,247.3258,112.7709,-0.00073645,-8.879e-05,0.0,0 STARLINK-3043,1 49179U 21082BB  23353.57984894 -.00008879  00000-0 -73645-3 0  9995,2 49179  70.0004 139.5437 0001809 247.3258 112.7709 14.98375530125464,6950.052,96.104,573.174,570.66,0.0
49179.0,STARLINK-3043,PAYLOAD,2023-12-19 20:19:31,14.98366497,0.0001804,70.0003,138.8701,245.5347,114.5624,-0.00072777,-8.773e-05,0.0,0 STARLINK-3043,1 49179U 21082BB  23353.84688909 -.00008773  00000-0 -72777-3 0  9991,2 49179  70.0003 138.8701 0001804 245.5347 114.5624 14.98366497125506,6950.08,96.105,573.199,570.691,0.0
49179.0,STARLINK-3043,PAYLOAD,2023-12-20 10:44:44,14.98328811,0.0002524,70.0005,137.356,261.1858,98.9015,-1.0289e-05,-2.16e-06,0.0,0 STARLINK-3043,1 49179U 21082BB  23354.44773720 -.00000216  00000-0 -10289-4 0  9999,2 49179  70.0005 137.3560 0002524 261.1858  98.9015 14.98328811125592,6950.197,96.107,573.816,570.307,0.0
49179.0,STARLINK-3043,PAYLOAD,2023-12-20 13:57:00,14.98328016,0.0002505,70.0002,137.0186,258.587,101.5007,7.3327e-06,-5e-08,0.0,0 STARLINK-3043,1 49179U 21082BB  23354.58125706 -.00000005  00000-0  73327-5 0  9997,2 49179  70.0002 137.0186 0002505 258.5870 101.5007 14.98328016125615,6950.199,96.107,573.805,570.323,0.0
49179.0,STARLINK-3043,PAYLOAD,2023-12-20 18:45:24,14.98330737,0.0002534,70.0003,136.514,258.2953,101.7922,-6.1075e-06,-1.66e-06,0.0,0 STARLINK-3043,1 49179U 21082BB  23354.78153580 -.00000166  00000-0 -61075-5 0  9996,2 49179  70.0003 136.5140 0002534 258.2953 101.7922 14.98330737125645,6950.191,96.107,573.817,570.294,0.0
49179.0,STARLINK-3043,PAYLOAD,2023-12-21 12:22:53,14.98329623,0.0002633,70.0002,134.6621,260.6743,99.4118,7.3295e-05,7.82e-06,0.0,0 STARLINK-3043,1 49179U 21082BB  23355.51589432  .00000782  00000-0  73295-4 0  9995,2 49179  70.0002 134.6621 0002633 260.6743  99.4118 14.98329623125755,6950.194,96.107,573.889,570.229,0.0
49179.0,STARLINK-3043,PAYLOAD,2023-12-21 13:59:01,14.98329528,0.0002639,70.0002,134.4938,260.7707,99.3154,7.1039e-05,7.55e-06,0.0,0 STARLINK-3043,1 49179U 21082BB  23355.58265453  .00000755  00000-0  71039-4 0  9990,2 49179  70.0002 134.4938 0002639 260.7707  99.3154 14.98329528125765,6950.194,96.107,573.894,570.225,0.0
49179.0,STARLINK-3043,PAYLOAD,2023-12-21 15:35:09,14.98329491,0.0002643,70.0002,134.3254,260.7902,99.2958,6.941e-05,7.35e-06,0.0,0 STARLINK-3043,1 49179U 21082BB  23355.64941465  .00000735  00000-0  69410-4 0  9999,2 49179  70.0002 134.3254 0002643 260.7902  99.2958 14.98329491125778,6950.194,96.107,573.896,570.223,0.0
49179.0,STARLINK-3043,PAYLOAD,2023-12-22 12:24:54,14.98331053,0.0002688,70.0005,132.1379,252.6402,107.4463,6.0181e-05,6.25e-06,0.0,0 STARLINK-3043,1 49179U 21082BB  23356.51729348  .00000625  00000-0  60181-4 0  9994,2 49179  70.0005 132.1379 0002688 252.6402 107.4463 14.98331053125904,6950.19,96.107,573.923,570.186,0.0
49179.0,STARLINK-3043,PAYLOAD,2023-12-22 14:01:02,14.9833093,0.0002699,70.0005,131.9695,252.3093,107.7772,5.8227e-05,6.02e-06,0.0,0 STARLINK-3043,1 49179U 21082BB  23356.58405378  .00000602  00000-0  58227-4 0  9998,2 49179  70.0005 131.9695 0002699 252.3093 107.7772 14.98330930125917,6950.19,96.107,573.931,570.179,0.0
49179.0,STARLINK-3043,PAYLOAD,2023-12-22 18:49:26,14.98332177,0.0002683,70.0006,131.4648,252.5239,107.5627,6.7946e-05,7.18e-06,0.0,0 STARLINK-3043,1 49179U 21082BB  23356.78433262  .00000718  00000-0  67946-4 0  9999,2 49179  70.0006 131.4648 0002683 252.5239 107.5627 14.98332177125943,6950.186,96.107,573.916,570.186,0.0
49179.0,STARLINK-3043,PAYLOAD,2023-12-23 12:26:55,14.9832894,0.0002577,70.001,129.6135,251.0117,109.0763,-1.2765e-07,-9.4e-07,0.0,0 STARLINK-3043,1 49179U 21082BB  23357.51869637 -.00000094  00000-0 -12765-6 0  9990,2 49179  70.0010 129.6135 0002577 251.0117 109.0763 14.98328940126053,6950.196,96.107,573.852,570.27,0.0
49179.0,STARLINK-3043,PAYLOAD,2023-12-23 14:03:03,14.98332071,0.000259,70.0011,129.4449,252.5467,107.5409,-6.6108e-05,-8.82e-06,0.0,0 STARLINK-3043,1 49179U 21082BB  23357.58545637 -.00000882  00000-0 -66108-4 0  9991,2 49179  70.0011 129.4449 0002590 252.5467 107.5409 14.98332071126060,6950.186,96.107,573.852,570.251,0.0
49179.0,STARLINK-3043,PAYLOAD,2023-12-23 18:51:27,14.98327897,0.0002585,70.0011,128.9402,253.3758,106.7118,1.1099e-05,4e-07,0.0,0 STARLINK-3043,1 49179U 21082BB  23357.78573714  .00000040  00000-0  11099-4 0  9993,2 49179  70.0011 128.9402 0002585 253.3758 106.7118 14.98327897126090,6950.199,96.107,573.861,570.268,0.0
49179.0,STARLINK-3043,PAYLOAD,2023-12-24 12:28:55,14.98335213,0.0002922,70.0003,127.0881,261.1096,98.9732,3.9338e-05,3.76e-06,0.0,0 STARLINK-3043,1 49179U 21082BB  23358.52009074  .00000376  00000-0  39338-4 0  9997,2 49179  70.0003 127.0881 0002922 261.1096  98.9732 14.98335213126207,6950.177,96.107,574.073,570.011,0.0
49179.0,STARLINK-3043,PAYLOAD,2023-12-24 14:05:03,14.98334538,0.0003008,70.0004,126.9203,261.1503,98.9315,5.0818e-05,5.13e-06,0.0,0 STARLINK-3043,1 49179U 21082BB  23358.58685042  .00000513  00000-0  50818-4 0  9997,2 49179  70.0004 126.9203 0003008 261.1503  98.9315 14.98334538126210,6950.179,96.107,574.134,569.953,0.0
49179.0,STARLINK-3043,PAYLOAD,2023-12-24 18:53:27,14.98338062,0.0002935,70.0005,126.4159,257.9159,102.1671,8.296e-05,8.97e-06,0.0,0 STARLINK-3043,1 49179U 21082BB  23358.78712679  .00000897  00000-0  82960-4 0  9994,2 49179  70.0005 126.4159 0002935 257.9159 102.1671 14.98338062126246,6950.168,96.106,574.073,569.993,0.0
49179.0,STARLINK-3043,PAYLOAD,2023-12-25 12:30:57,14.98326631,0.0003027,69.9998,124.563,265.0718,95.0095,9.1056e-06,1.6e-07,0.0,0 STARLINK-3043,1 49179U 21082BB  23359.52149693  .00000016  00000-0  91056-5 0  9997,2 49179  69.9998 124.5630 0003027 265.0718  95.0095 14.98326631126352,6950.203,96.107,574.172,569.964,0.0
49179.0,STARLINK-3043,PAYLOAD,2023-12-25 18:55:29,14.98329458,0.0002933,70.0001,123.8903,264.3242,95.7583,3.9734e-05,3.81e-06,0.0,0 STARLINK-3043,1 49179U 21082BB  23359.78853463  .00000381  00000-0  39734-4 0  9991,2 49179  70.0001 123.8903 0002933 264.3242  95.7583 14.98329458126397,6950.195,96.107,574.098,570.021,0.0
49179.0,STARLINK-3043,PAYLOAD,2023-12-26 14:09:06,14.98328025,0.0002774,70.0003,121.8692,257.4451,102.6398,4.1839e-05,4.06e-06,0.0,0 STARLINK-3043,1 49179U 21082BB  23360.58965555  .00000406  00000-0  41839-4 0  9994,2 49179  70.0003 121.8692 0002774 257.4451 102.6398 14.98328025126515,6950.199,96.107,573.992,570.136,0.0
49179.0,STARLINK-3043,PAYLOAD,2023-12-26 17:21:22,14.98333114,0.0002804,70.0003,121.5325,261.2136,98.8706,1.897e-05,1.33e-06,0.0,0 STARLINK-3043,1 49179U 21082BB  23360.72317290  .00000133  00000-0  18970-4 0  9994,2 49179  70.0003 121.5325 0002804 261.2136  98.8706 14.98333114126538,6950.183,96.107,573.997,570.099,0.0
